OBJECT_NAME,OBJECT_ID,EPOCH,MEAN_MOTION,ECCENTRICITY,INCLINATION,RA_OF_ASC_NODE,ARG_OF_PERICENTER,MEAN_ANOMALY,EPHEMERIS_TYPE,CLASSIFICATION_TYPE,NORAD_CAT_ID,ELEMENT_SET_NO,REV_AT_EPOCH,BSTAR,MEAN_MOTION_DOT,MEAN_MOTION_DDOT
SAUDISAT 1C (SO-50),2002-058C,2026-06-18T08:51:28.340928,14.83049237,.0075194,64.5511,125.3282,262.2562,97.0002,0,U,27607,999,26463,.11046E-3,.788E-5,0
SAUDISAT 2,2004-025F,2026-06-18T11:18:51.729984,14.56684550,.0023549,98.5507,169.4865,294.1244,65.7491,0,U,28371,999,16593,.5178E-4,.182E-5,0
SAUDISAT 3,2007-012B,2026-06-18T14:50:58.437024,14.71426291,.0013722,98.1456,120.0203,218.9952,141.0266,0,U,31118,999,2795,.39331E-4,.193E-5,0
PISAT,2016-059B,2026-06-17T23:04:24.956544,14.68984509,.00284433,97.8178,169.3809,200.2325,159.7756,0,U,41784,999,51985,.11935816E-3,.656E-5,0
FLYING LAPTOP,2017-042G,2026-06-18T17:14:51.148320,15.01154582,.0019604,97.4694,325.1921,116.6188,243.7048,0,U,42831,999,48668,.23309E-3,.2941E-4,0
SALSAT,2020-068K,2026-06-18T10:53:20.067072,15.29814902,.0007987,97.8850,172.5954,302.8690,57.1780,0,U,46495,999,31555,.21401E-3,.61E-4,0
